GOES 17                 
1 43226U 18022A   25333.77418911 -.00000161  00000+0  00000+0 0  9991
2 43226   0.4229  89.4310 0003295 180.0316 348.6717  1.00270623 28422
FENGYUN 2H              
1 43491U 18050A   25333.87914310 -.00000108  00000+0  00000+0 0  9992
2 43491   2.5146  81.4740 0002734 159.4149 223.9811  1.00272000 27449
METOP-C                 
1 43689U 18087A   25333.79996308  .00000136  00000+0  82081-4 0  9993
2 43689  98.6948  31.7666 0001826  63.0744 297.0620 14.21504107366507
GEO-KOMPSAT-2A          
1 43823U 18100A   25333.81743604  .00000000  00000+0  00000+0 0  9997
2 43823   0.0244  87.7317 0000653 104.3370 299.4104  1.00269963 25638
METEOR-M2 2             
1 44387U 19038A   25333.81082122  .00000196  00000+0  10468-3 0  9994
2 44387  98.8959 313.3823 0000689 176.0256 184.0928 14.24282603332911
ARKTIKA-M 1             
1 47719U 21016A   25330.12769414 -.00000005  00000+0  00000+0 0  9999
2 47719  63.1753  86.2841 7194663 269.0636  15.7380  2.00612931 34715
FENGYUN 3E              
1 49008U 21062A   25333.84911274  .00000037  00000+0  38305-4 0  9996
2 49008  98.7476 334.5231 0000933 341.8143  18.2999 14.19877238228295
GOES 18                 
1 51850U 22021A   25333.76491572  .00000118  00000+0  00000+0 0  9991
2 51850   0.0016 263.7115 0000709  26.0573 277.5200  1.00272420  4591
