{
  "type": "FeatureCollection",
  "features": [
    {
      "type": "Feature",
      "properties": {
        "OBJECT_NAME": "GOES 17",
        "OBJECT_ID": "2018-022A",
        "EPOCH": "2025-11-29T18:34:49.939104",
        "MEAN_MOTION": 1.00270623,
        "ECCENTRICITY": 0.0003295,
        "INCLINATION": 0.4229,
        "RA_OF_ASC_NODE": 89.431,
        "ARG_OF_PERICENTER": 180.0316,
        "MEAN_ANOMALY": 348.6717,
        "EPHEMERIS_TYPE": 0,
        "CLASSIFICATION_TYPE": "U",
        "NORAD_CAT_ID": 43226,
        "ELEMENT_SET_NO": 999,
        "REV_AT_EPOCH": 2842,
        "BSTAR": 0,
        "MEAN_MOTION_DOT": -1.61e-06,
        "MEAN_MOTION_DDOT": 0,
        "norad_id": 43226,
        "name": "GOES 17",
        "group": "weather",
        "longitude_deg": NaN,
        "latitude_deg": NaN,
        "alt_km": NaN,
        "orbit_class": "HEO",
        "timestamp": "2025-11-30T07:29:52.812685+00:00"
      },
      "geometry": {
        "type": "Point",
        "coordinates": [
          NaN,
          NaN
        ]
      }
    },
    {
      "type": "Feature",
      "properties": {
        "OBJECT_NAME": "FENGYUN 2H",
        "OBJECT_ID": "2018-050A",
        "EPOCH": "2025-11-29T21:05:57.963840",
        "MEAN_MOTION": 1.00272,
        "ECCENTRICITY": 0.0002734,
        "INCLINATION": 2.5146,
        "RA_OF_ASC_NODE": 81.474,
        "ARG_OF_PERICENTER": 159.4149,
        "MEAN_ANOMALY": 223.9811,
        "EPHEMERIS_TYPE": 0,
        "CLASSIFICATION_TYPE": "U",
        "NORAD_CAT_ID": 43491,
        "ELEMENT_SET_NO": 999,
        "REV_AT_EPOCH": 2744,
        "BSTAR": 0,
        "MEAN_MOTION_DOT": -1.08e-06,
        "MEAN_MOTION_DDOT": 0,
        "norad_id": 43491,
        "name": "FENGYUN 2H",
        "group": "weather",
        "longitude_deg": NaN,
        "latitude_deg": NaN,
        "alt_km": NaN,
        "orbit_class": "HEO",
        "timestamp": "2025-11-30T07:29:52.813007+00:00"
      },
      "geometry": {
        "type": "Point",
        "coordinates": [
          NaN,
          NaN
        ]
      }
    },
    {
      "type": "Feature",
      "properties": {
        "OBJECT_NAME": "METOP-C",
        "OBJECT_ID": "2018-087A",
        "EPOCH": "2025-11-29T19:11:56.810112",
        "MEAN_MOTION": 14.21504107,
        "ECCENTRICITY": 0.0001826,
        "INCLINATION": 98.6948,
        "RA_OF_ASC_NODE": 31.7666,
        "ARG_OF_PERICENTER": 63.0744,
        "MEAN_ANOMALY": 297.062,
        "EPHEMERIS_TYPE": 0,
        "CLASSIFICATION_TYPE": "U",
        "NORAD_CAT_ID": 43689,
        "ELEMENT_SET_NO": 999,
        "REV_AT_EPOCH": 36650,
        "BSTAR": 8.2081e-05,
        "MEAN_MOTION_DOT": 1.36e-06,
        "MEAN_MOTION_DDOT": 0,
        "norad_id": 43689,
        "name": "METOP-C",
        "group": "weather",
        "longitude_deg": NaN,
        "latitude_deg": NaN,
        "alt_km": NaN,
        "orbit_class": "HEO",
        "timestamp": "2025-11-30T07:29:52.813363+00:00"
      },
      "geometry": {
        "type": "Point",
        "coordinates": [
          NaN,
          NaN
        ]
      }
    },
    {
      "type": "Feature",
      "properties": {
        "OBJECT_NAME": "GEO-KOMPSAT-2A",
        "OBJECT_ID": "2018-100A",
        "EPOCH": "2025-11-29T19:37:06.473856",
        "MEAN_MOTION": 1.00269963,
        "ECCENTRICITY": 6.53e-05,
        "INCLINATION": 0.0244,
        "RA_OF_ASC_NODE": 87.7317,
        "ARG_OF_PERICENTER": 104.337,
        "MEAN_ANOMALY": 299.4104,
        "EPHEMERIS_TYPE": 0,
        "CLASSIFICATION_TYPE": "U",
        "NORAD_CAT_ID": 43823,
        "ELEMENT_SET_NO": 999,
        "REV_AT_EPOCH": 2563,
        "BSTAR": 0,
        "MEAN_MOTION_DOT": 0,
        "MEAN_MOTION_DDOT": 0,
        "norad_id": 43823,
        "name": "GEO-KOMPSAT-2A",
        "group": "weather",
        "longitude_deg": NaN,
        "latitude_deg": NaN,
        "alt_km": NaN,
        "orbit_class": "HEO",
        "timestamp": "2025-11-30T07:29:52.813701+00:00"
      },
      "geometry": {
        "type": "Point",
        "coordinates": [
          NaN,
          NaN
        ]
      }
    },
    {
      "type": "Feature",
      "properties": {
        "OBJECT_NAME": "METEOR-M2 2",
        "OBJECT_ID": "2019-038A",
        "EPOCH": "2025-11-29T19:27:34.953408",
        "MEAN_MOTION": 14.24282603,
        "ECCENTRICITY": 6.89e-05,
        "INCLINATION": 98.8959,
        "RA_OF_ASC_NODE": 313.3823,
        "ARG_OF_PERICENTER": 176.0256,
        "MEAN_ANOMALY": 184.0928,
        "EPHEMERIS_TYPE": 0,
        "CLASSIFICATION_TYPE": "U",
        "NORAD_CAT_ID": 44387,
        "ELEMENT_SET_NO": 999,
        "REV_AT_EPOCH": 33291,
        "BSTAR": 0.00010468,
        "MEAN_MOTION_DOT": 1.96e-06,
        "MEAN_MOTION_DDOT": 0,
        "norad_id": 44387,
        "name": "METEOR-M2 2",
        "group": "weather",
        "longitude_deg": NaN,
        "latitude_deg": NaN,
        "alt_km": NaN,
        "orbit_class": "HEO",
        "timestamp": "2025-11-30T07:29:52.814249+00:00"
      },
      "geometry": {
        "type": "Point",
        "coordinates": [
          NaN,
          NaN
        ]
      }
    },
    {
      "type": "Feature",
      "properties": {
        "OBJECT_NAME": "ARKTIKA-M 1",
        "OBJECT_ID": "2021-016A",
        "EPOCH": "2025-11-26T03:03:52.773696",
        "MEAN_MOTION": 2.00612931,
        "ECCENTRICITY": 0.71946631,
        "INCLINATION": 63.1753,
        "RA_OF_ASC_NODE": 86.2841,
        "ARG_OF_PERICENTER": 269.0636,
        "MEAN_ANOMALY": 15.738,
        "EPHEMERIS_TYPE": 0,
        "CLASSIFICATION_TYPE": "U",
        "NORAD_CAT_ID": 47719,
        "ELEMENT_SET_NO": 999,
        "REV_AT_EPOCH": 3471,
        "BSTAR": 0,
        "MEAN_MOTION_DOT": -5e-08,
        "MEAN_MOTION_DDOT": 0,
        "norad_id": 47719,
        "name": "ARKTIKA-M 1",
        "group": "weather",
        "longitude_deg": NaN,
        "latitude_deg": NaN,
        "alt_km": NaN,
        "orbit_class": "HEO",
        "timestamp": "2025-11-30T07:29:52.819435+00:00"
      },
      "geometry": {
        "type": "Point",
        "coordinates": [
          NaN,
          NaN
        ]
      }
    },
    {
      "type": "Feature",
      "properties": {
        "OBJECT_NAME": "FENGYUN 3E",
        "OBJECT_ID": "2021-062A",
        "EPOCH": "2025-11-29T20:22:43.340736",
        "MEAN_MOTION": 14.19877238,
        "ECCENTRICITY": 9.33e-05,
        "INCLINATION": 98.7476,
        "RA_OF_ASC_NODE": 334.5231,
        "ARG_OF_PERICENTER": 341.8143,
        "MEAN_ANOMALY": 18.2999,
        "EPHEMERIS_TYPE": 0,
        "CLASSIFICATION_TYPE": "U",
        "NORAD_CAT_ID": 49008,
        "ELEMENT_SET_NO": 999,
        "REV_AT_EPOCH": 22829,
        "BSTAR": 3.8305e-05,
        "MEAN_MOTION_DOT": 3.7e-07,
        "MEAN_MOTION_DDOT": 0,
        "norad_id": 49008,
        "name": "FENGYUN 3E",
        "group": "weather",
        "longitude_deg": NaN,
        "latitude_deg": NaN,
        "alt_km": NaN,
        "orbit_class": "HEO",
        "timestamp": "2025-11-30T07:29:52.823287+00:00"
      },
      "geometry": {
        "type": "Point",
        "coordinates": [
          NaN,
          NaN
        ]
      }
    },
    {
      "type": "Feature",
      "properties": {
        "OBJECT_NAME": "GOES 18",
        "OBJECT_ID": "2022-021A",
        "EPOCH": "2025-11-29T18:21:28.718208",
        "MEAN_MOTION": 1.0027242,
        "ECCENTRICITY": 7.09e-05,
        "INCLINATION": 0.0016,
        "RA_OF_ASC_NODE": 263.7115,
        "ARG_OF_PERICENTER": 26.0573,
        "MEAN_ANOMALY": 277.52,
        "EPHEMERIS_TYPE": 0,
        "CLASSIFICATION_TYPE": "U",
        "NORAD_CAT_ID": 51850,
        "ELEMENT_SET_NO": 999,
        "REV_AT_EPOCH": 459,
        "BSTAR": 0,
        "MEAN_MOTION_DOT": 1.18e-06,
        "MEAN_MOTION_DDOT": 0,
        "norad_id": 51850,
        "name": "GOES 18",
        "group": "weather",
        "longitude_deg": NaN,
        "latitude_deg": NaN,
        "alt_km": NaN,
        "orbit_class": "HEO",
        "timestamp": "2025-11-30T07:29:52.827423+00:00"
      },
      "geometry": {
        "type": "Point",
        "coordinates": [
          NaN,
          NaN
        ]
      }
    }
  ]
}